[{"OBJECT_NAME":"ONEWEB-0397","OBJECT_ID":"2021-132J","EPOCH":"2026-03-09T16:59:21.666624","MEAN_MOTION":13.18686688,"ECCENTRICITY":0.00015693,"INCLINATION":87.9253,"RA_OF_ASC_NODE":355.2092,"ARG_OF_PERICENTER":79.6677,"MEAN_ANOMALY":280.4632,"EPHEMERIS_TYPE":0,"CLASSIFICATION_TYPE":"U","NORAD_CAT_ID":50477,"ELEMENT_SET_NO":999,"REV_AT_EPOCH":20850,"BSTAR":0.00028105608,"MEAN_MOTION_DOT":1.24e-6,"MEAN_MOTION_DDOT":0},{"OBJECT_NAME":"DELTA 1 DEB","OBJECT_ID":"1973-086EP","EPOCH":"2026-03-09T22:25:39.258624","MEAN_MOTION":13.16908943,"ECCENTRICITY":0.02405736,"INCLINATION":102.0404,"RA_OF_ASC_NODE":68.2966,"ARG_OF_PERICENTER":186.6574,"MEAN_ANOMALY":204.016,"EPHEMERIS_TYPE":0,"CLASSIFICATION_TYPE":"U","NORAD_CAT_ID":7177,"ELEMENT_SET_NO":999,"REV_AT_EPOCH":49192,"BSTAR":0.0019260639,"MEAN_MOTION_DOT":8.03e-6,"MEAN_MOTION_DDOT":0}]
